[{"OBJECT_NAME":"CUTE-1.7+APD II (CO-65)","OBJECT_ID":"2008-021C","EPOCH":"2026-03-05T17:35:46.076352","MEAN_MOTION":15.08305588,"ECCENTRICITY":0.001017,"INCLINATION":97.8206,"RA_OF_ASC_NODE":44.1338,"ARG_OF_PERICENTER":32.0987,"MEAN_ANOMALY":328.0858,"EPHEMERIS_TYPE":0,"CLASSIFICATION_TYPE":"U","NORAD_CAT_ID":32785,"ELEMENT_SET_NO":999,"REV_AT_EPOCH":96959,"BSTAR":0.00058081,"MEAN_MOTION_DOT":8.959e-5,"MEAN_MOTION_DDOT":0},{"OBJECT_NAME":"SEEDS II (CO-66)","OBJECT_ID":"2008-021J","EPOCH":"2026-03-05T12:52:15.449952","MEAN_MOTION":15.2886444,"ECCENTRICITY":0.0002167,"INCLINATION":97.7512,"RA_OF_ASC_NODE":57.7941,"ARG_OF_PERICENTER":12.57,"MEAN_ANOMALY":347.5593,"EPHEMERIS_TYPE":0,"CLASSIFICATION_TYPE":"U","NORAD_CAT_ID":32791,"ELEMENT_SET_NO":999,"REV_AT_EPOCH":97143,"BSTAR":0.00089406,"MEAN_MOTION_DOT":0.00025054,"MEAN_MOTION_DDOT":0},{"OBJECT_NAME":"YUBILEINY (RS30)","OBJECT_ID":"2008-025A","EPOCH":"2026-03-05T18:20:44.669760","MEAN_MOTION":12.4317615,"ECCENTRICITY":0.001937,"INCLINATION":82.4986,"RA_OF_ASC_NODE":59.7649,"ARG_OF_PERICENTER":173.7767,"MEAN_ANOMALY":186.3557,"EPHEMERIS_TYPE":0,"CLASSIFICATION_TYPE":"U","NORAD_CAT_ID":32953,"ELEMENT_SET_NO":999,"REV_AT_EPOCH":80684,"BSTAR":0.00043299,"MEAN_MOTION_DOT":7.0e-7,"MEAN_MOTION_DDOT":0},{"OBJECT_NAME":"KKS-1 (KISEKI)","OBJECT_ID":"2009-002H","EPOCH":"2026-03-05T18:04:59.183328","MEAN_MOTION":14.8281194,"ECCENTRICITY":0.0006426,"INCLINATION":98.1189,"RA_OF_ASC_NODE":345.5891,"ARG_OF_PERICENTER":266.4349,"MEAN_ANOMALY":93.6129,"EPHEMERIS_TYPE":0,"CLASSIFICATION_TYPE":"U","NORAD_CAT_ID":33499,"ELEMENT_SET_NO":999,"REV_AT_EPOCH":92086,"BSTAR":0.00031744,"MEAN_MOTION_DOT":2.513e-5,"MEAN_MOTION_DDOT":0},{"OBJECT_NAME":"SWISSCUBE","OBJECT_ID":"2009-051B","EPOCH":"2026-03-05T17:08:06.392832","MEAN_MOTION":14.62247075,"ECCENTRICITY":0.0006806,"INCLINATION":98.4101,"RA_OF_ASC_NODE":330.7863,"ARG_OF_PERICENTER":164.5501,"MEAN_ANOMALY":195.5909,"EPHEMERIS_TYPE":0,"CLASSIFICATION_TYPE":"U","NORAD_CAT_ID":35932,"ELEMENT_SET_NO":999,"REV_AT_EPOCH":87403,"BSTAR":0.00036858,"MEAN_MOTION_DOT":1.809e-5,"MEAN_MOTION_DDOT":0},{"OBJECT_NAME":"BEESAT-1","OBJECT_ID":"2009-051C","EPOCH":"2026-03-05T16:05:50.964864","MEAN_MOTION":14.61522598,"ECCENTRICITY":0.000503,"INCLINATION":98.4032,"RA_OF_ASC_NODE":330.5905,"ARG_OF_PERICENTER":175.5274,"MEAN_ANOMALY":184.5972,"EPHEMERIS_TYPE":0,"CLASSIFICATION_TYPE":"U","NORAD_CAT_ID":35933,"ELEMENT_SET_NO":999,"REV_AT_EPOCH":87406,"BSTAR":0.00031878,"MEAN_MOTION_DOT":1.533e-5,"MEAN_MOTION_DDOT":0},{"OBJECT_NAME":"ITUPSAT1","OBJECT_ID":"2009-051E","EPOCH":"2026-03-05T17:00:16.553952","MEAN_MOTION":14.60258403,"ECCENTRICITY":0.0006991,"INCLINATION":98.4119,"RA_OF_ASC_NODE":329.9276,"ARG_OF_PERICENTER":190.8794,"MEAN_ANOMALY":169.2255,"EPHEMERIS_TYPE":0,"CLASSIFICATION_TYPE":"U","NORAD_CAT_ID":35935,"ELEMENT_SET_NO":999,"REV_AT_EPOCH":87363,"BSTAR":0.00029735,"MEAN_MOTION_DOT":1.387e-5,"MEAN_MOTION_DDOT":0},{"OBJECT_NAME":"XIWANG-1 (HOPE-1)","OBJECT_ID":"2009-072B","EPOCH":"2026-03-05T19:24:59.576832","MEAN_MOTION":13.16435144,"ECCENTRICITY":0.0008051,"INCLINATION":100.3912,"RA_OF_ASC_NODE":20.3486,"ARG_OF_PERICENTER":107.8004,"MEAN_ANOMALY":252.3988,"EPHEMERIS_TYPE":0,"CLASSIFICATION_TYPE":"U","NORAD_CAT_ID":36122,"ELEMENT_SET_NO":999,"REV_AT_EPOCH":77940,"BSTAR":-0.00059351,"MEAN_MOTION_DOT":-2.71e-6,"MEAN_MOTION_DDOT":0},{"OBJECT_NAME":"O/OREOS (USA 219)","OBJECT_ID":"2010-062C","EPOCH":"2026-03-05T17:05:37.025376","MEAN_MOTION":14.93255745,"ECCENTRICITY":0.0016897,"INCLINATION":71.9719,"RA_OF_ASC_NODE":314.6457,"ARG_OF_PERICENTER":263.3897,"MEAN_ANOMALY":96.535,"EPHEMERIS_TYPE":0,"CLASSIFICATION_TYPE":"U","NORAD_CAT_ID":37224,"ELEMENT_SET_NO":999,"REV_AT_EPOCH":10119,"BSTAR":0.00034209,"MEAN_MOTION_DOT":3.529e-5,"MEAN_MOTION_DDOT":0},{"OBJECT_NAME":"JUGNU","OBJECT_ID":"2011-058B","EPOCH":"2026-03-05T16:39:03.586464","MEAN_MOTION":14.13738742,"ECCENTRICITY":0.0018701,"INCLINATION":19.9594,"RA_OF_ASC_NODE":217.1737,"ARG_OF_PERICENTER":13.5816,"MEAN_ANOMALY":94.8505,"EPHEMERIS_TYPE":0,"CLASSIFICATION_TYPE":"U","NORAD_CAT_ID":37839,"ELEMENT_SET_NO":999,"REV_AT_EPOCH":74436,"BSTAR":0.00014784,"MEAN_MOTION_DOT":5.5e-6,"MEAN_MOTION_DDOT":0},{"OBJECT_NAME":"SRMSAT","OBJECT_ID":"2011-058D","EPOCH":"2026-03-05T19:08:13.529184","MEAN_MOTION":14.1154593,"ECCENTRICITY":0.0011863,"INCLINATION":19.973,"RA_OF_ASC_NODE":325.2627,"ARG_OF_PERICENTER":146.3815,"MEAN_ANOMALY":259.2146,"EPHEMERIS_TYPE":0,"CLASSIFICATION_TYPE":"U","NORAD_CAT_ID":37841,"ELEMENT_SET_NO":999,"REV_AT_EPOCH":74319,"BSTAR":0.00012935,"MEAN_MOTION_DOT":5.03e-6,"MEAN_MOTION_DDOT":0},{"OBJECT_NAME":"STRAND-1","OBJECT_ID":"2013-009E","EPOCH":"2026-03-05T10:57:19.501344","MEAN_MOTION":14.37090623,"ECCENTRICITY":0.0008749,"INCLINATION":98.3882,"RA_OF_ASC_NODE":247.2534,"ARG_OF_PERICENTER":174.1071,"MEAN_ANOMALY":186.022,"EPHEMERIS_TYPE":0,"CLASSIFICATION_TYPE":"U","NORAD_CAT_ID":39090,"ELEMENT_SET_NO":999,"REV_AT_EPOCH":68216,"BSTAR":0.00019271,"MEAN_MOTION_DOT":5.3e-6,"MEAN_MOTION_DDOT":0},{"OBJECT_NAME":"ZACUBE-1 (TSHEPISOSAT)","OBJECT_ID":"2013-066B","EPOCH":"2026-03-05T11:04:43.779648","MEAN_MOTION":15.00273125,"ECCENTRICITY":0.0041905,"INCLINATION":97.8184,"RA_OF_ASC_NODE":26.2647,"ARG_OF_PERICENTER":234.2081,"MEAN_ANOMALY":125.5244,"EPHEMERIS_TYPE":0,"CLASSIFICATION_TYPE":"U","NORAD_CAT_ID":39417,"ELEMENT_SET_NO":999,"REV_AT_EPOCH":66517,"BSTAR":0.00051118,"MEAN_MOTION_DOT":6.46e-5,"MEAN_MOTION_DDOT":0},{"OBJECT_NAME":"GOMX-1","OBJECT_ID":"2013-066Q","EPOCH":"2026-03-05T14:26:54.241152","MEAN_MOTION":14.69080639,"ECCENTRICITY":0.0130465,"INCLINATION":97.6567,"RA_OF_ASC_NODE":271.5624,"ARG_OF_PERICENTER":50.526,"MEAN_ANOMALY":310.7401,"EPHEMERIS_TYPE":0,"CLASSIFICATION_TYPE":"U","NORAD_CAT_ID":39430,"ELEMENT_SET_NO":999,"REV_AT_EPOCH":65470,"BSTAR":0.00046961,"MEAN_MOTION_DOT":3.092e-5,"MEAN_MOTION_DDOT":0},{"OBJECT_NAME":"CUBEBUG-2 (LO-74)","OBJECT_ID":"2013-066AA","EPOCH":"2026-03-05T16:13:47.047008","MEAN_MOTION":14.92896457,"ECCENTRICITY":0.0059186,"INCLINATION":97.8819,"RA_OF_ASC_NODE":13.3431,"ARG_OF_PERICENTER":12.4274,"MEAN_ANOMALY":347.8388,"EPHEMERIS_TYPE":0,"CLASSIFICATION_TYPE":"U","NORAD_CAT_ID":39440,"ELEMENT_SET_NO":999,"REV_AT_EPOCH":66154,"BSTAR":0.00077184,"MEAN_MOTION_DOT":8.223e-5,"MEAN_MOTION_DDOT":0},{"OBJECT_NAME":"FUNCUBE-1 (AO-73)","OBJECT_ID":"2013-066AE","EPOCH":"2026-03-05T11:02:51.609984","MEAN_MOTION":15.07814743,"ECCENTRICITY":0.0036782,"INCLINATION":97.8183,"RA_OF_ASC_NODE":33.9264,"ARG_OF_PERICENTER":193.8533,"MEAN_ANOMALY":166.1688,"EPHEMERIS_TYPE":0,"CLASSIFICATION_TYPE":"U","NORAD_CAT_ID":39444,"ELEMENT_SET_NO":999,"REV_AT_EPOCH":66402,"BSTAR":0.00074915,"MEAN_MOTION_DOT":0.0001159,"MEAN_MOTION_DDOT":0},{"OBJECT_NAME":"UWE-3","OBJECT_ID":"2013-066AG","EPOCH":"2026-03-05T15:36:07.279200","MEAN_MOTION":14.96123135,"ECCENTRICITY":0.0048721,"INCLINATION":97.8595,"RA_OF_ASC_NODE":20.1665,"ARG_OF_PERICENTER":306.3334,"MEAN_ANOMALY":53.3394,"EPHEMERIS_TYPE":0,"CLASSIFICATION_TYPE":"U","NORAD_CAT_ID":39446,"ELEMENT_SET_NO":999,"REV_AT_EPOCH":66209,"BSTAR":0.00061115,"MEAN_MOTION_DOT":6.983e-5,"MEAN_MOTION_DDOT":0}]
