CUTE-1.7+APD II (CO-65) 
1 32785U 08021C   26064.73317218  .00008959  00000+0  58081-3 0  9991
2 32785  97.8206  44.1338 0010170  32.0987 328.0858 15.08305588969595
SEEDS II (CO-66)        
1 32791U 08021J   26064.53628993  .00025054  00000+0  89406-3 0  9991
2 32791  97.7512  57.7941 0002167  12.5700 347.5593 15.28864440971431
YUBILEINY (RS30)        
1 32953U 08025A   26064.76440590  .00000070  00000+0  43299-3 0  9996
2 32953  82.4986  59.7649 0019370 173.7767 186.3557 12.43176150806840
KKS-1 (KISEKI)          
1 33499U 09002H   26064.75346277  .00002513  00000+0  31744-3 0  9990
2 33499  98.1189 345.5891 0006426 266.4349  93.6129 14.82811940920866
SWISSCUBE               
1 35932U 09051B   26064.71396288  .00001809  00000+0  36858-3 0  9999
2 35932  98.4101 330.7863 0006806 164.5501 195.5909 14.62247075874037
BEESAT-1                
1 35933U 09051C   26064.67072876  .00001533  00000+0  31878-3 0  9990
2 35933  98.4032 330.5905 0005030 175.5274 184.5972 14.61522598874069
ITUPSAT1                
1 35935U 09051E   26064.70852493  .00001387  00000+0  29735-3 0  9993
2 35935  98.4119 329.9276 0006991 190.8794 169.2255 14.60258403873630
XIWANG-1 (HOPE-1)       
1 36122U 09072B   26064.80902288 -.00000271  00000+0 -59351-3 0  9994
2 36122 100.3912  20.3486 0008051 107.8004 252.3988 13.16435144779405
O/OREOS (USA 219)       
1 37224U 10062C   26064.71223409  .00003529  00000+0  34209-3 0  9992
2 37224  71.9719 314.6457 0016897 263.3897  96.5350 14.93255745101198
JUGNU                   
1 37839U 11058B   26064.69379151  .00000550  00000+0  14784-3 0  9990
2 37839  19.9594 217.1737 0018701  13.5816  94.8505 14.13738742744363
SRMSAT                  
1 37841U 11058D   26064.79737881  .00000503  00000+0  12935-3 0  9996
2 37841  19.9730 325.2627 0011863 146.3815 259.2146 14.11545930743194
STRAND-1                
1 39090U 13009E   26064.45647571  .00000530  00000+0  19271-3 0  9991
2 39090  98.3882 247.2534 0008749 174.1071 186.0220 14.37090623682164
ZACUBE-1 (TSHEPISOSAT)  
1 39417U 13066B   26064.46161782  .00006460  00000+0  51118-3 0  9997
2 39417  97.8184  26.2647 0041905 234.2081 125.5244 15.00273125665173
GOMX-1                  
1 39430U 13066Q   26064.60201668  .00003092  00000+0  46961-3 0  9994
2 39430  97.6567 271.5624 0130465  50.5260 310.7401 14.69080639654709
CUBEBUG-2 (LO-74)       
1 39440U 13066AA  26064.67623897  .00008223  00000+0  77184-3 0  9996
2 39440  97.8819  13.3431 0059186  12.4274 347.8388 14.92896457661546
FUNCUBE-1 (AO-73)       
1 39444U 13066AE  26064.46031956  .00011590  00000+0  74915-3 0  9996
2 39444  97.8183  33.9264 0036782 193.8533 166.1688 15.07814743664021
UWE-3                   
1 39446U 13066AG  26064.65008425  .00006983  00000+0  61115-3 0  9992
2 39446  97.8595  20.1665 0048721 306.3334  53.3394 14.96123135662090
